CCSDS_OMM_VERS = 2.0
CREATION_DATE  = 
ORIGINATOR     = 

OBJECT_NAME    = STARLINK-35507
OBJECT_ID      = 2025-253J
CENTER_NAME    = EARTH
REF_FRAME      = TEME
TIME_SYSTEM    = UTC
MEAN_ELEMENT_THEORY = SGP/SGP4

EPOCH          = 2025-12-03T04:00:01.998720
MEAN_MOTION    = 15.50612124
ECCENTRICITY   = .0001526
INCLINATION    = 43.0007
RA_OF_ASC_NODE = 40.7115
ARG_OF_PERICENTER = 264.9506
MEAN_ANOMALY   = 211.0836

EPHEMERIS_TYPE = 0
CLASSIFICATION_TYPE = U
NORAD_CAT_ID   = 66327
ELEMENT_SET_NO = 999
REV_AT_EPOCH   = 548
BSTAR          = -.14577E-2
MEAN_MOTION_DOT = -.85037E-3
MEAN_MOTION_DDOT = 0

CCSDS_OMM_VERS = 2.0
CREATION_DATE  = 
ORIGINATOR     = 

OBJECT_NAME    = STARLINK-35460
OBJECT_ID      = 2025-253K
CENTER_NAME    = EARTH
REF_FRAME      = TEME
TIME_SYSTEM    = UTC
MEAN_ELEMENT_THEORY = SGP/SGP4

EPOCH          = 2025-12-01T14:19:31.564704
MEAN_MOTION    = 15.50606087
ECCENTRICITY   = .00018266
INCLINATION    = 43.0003
RA_OF_ASC_NODE = 49.8457
ARG_OF_PERICENTER = 291.6400
MEAN_ANOMALY   = 68.4265

EPHEMERIS_TYPE = 0
CLASSIFICATION_TYPE = U
NORAD_CAT_ID   = 66328
ELEMENT_SET_NO = 999
REV_AT_EPOCH   = 520
BSTAR          = .16742687E-2
MEAN_MOTION_DOT = .9923E-3
MEAN_MOTION_DDOT = 0

CCSDS_OMM_VERS = 2.0
CREATION_DATE  = 
ORIGINATOR     = 

OBJECT_NAME    = STARLINK-35505
OBJECT_ID      = 2025-253L
CENTER_NAME    = EARTH
REF_FRAME      = TEME
TIME_SYSTEM    = UTC
MEAN_ELEMENT_THEORY = SGP/SGP4

EPOCH          = 2025-12-02T21:19:39.072288
MEAN_MOTION    = 15.50727196
ECCENTRICITY   = .0004007
INCLINATION    = 42.9944
RA_OF_ASC_NODE = 42.3497
ARG_OF_PERICENTER = 64.2756
MEAN_ANOMALY   = 295.8518

EPHEMERIS_TYPE = 0
CLASSIFICATION_TYPE = U
NORAD_CAT_ID   = 66329
ELEMENT_SET_NO = 999
REV_AT_EPOCH   = 540
BSTAR          = .55423E-2
MEAN_MOTION_DOT = .341195E-2
MEAN_MOTION_DDOT = 0

CCSDS_OMM_VERS = 2.0
CREATION_DATE  = 
ORIGINATOR     = 

OBJECT_NAME    = STARLINK-35512
OBJECT_ID      = 2025-253M
CENTER_NAME    = EARTH
REF_FRAME      = TEME
TIME_SYSTEM    = UTC
MEAN_ELEMENT_THEORY = SGP/SGP4

EPOCH          = 2025-12-03T04:00:01.998720
MEAN_MOTION    = 15.40699918
ECCENTRICITY   = .0001832
INCLINATION    = 43.0008
RA_OF_ASC_NODE = 40.8895
ARG_OF_PERICENTER = 279.5569
MEAN_ANOMALY   = 122.9834

EPHEMERIS_TYPE = 0
CLASSIFICATION_TYPE = U
NORAD_CAT_ID   = 66330
ELEMENT_SET_NO = 999
REV_AT_EPOCH   = 539
BSTAR          = -.9107E-4
MEAN_MOTION_DOT = -.4106E-4
MEAN_MOTION_DDOT = 0

CCSDS_OMM_VERS = 2.0
CREATION_DATE  = 
ORIGINATOR     = 

OBJECT_NAME    = STARLINK-35257
OBJECT_ID      = 2025-253N
CENTER_NAME    = EARTH
REF_FRAME      = TEME
TIME_SYSTEM    = UTC
MEAN_ELEMENT_THEORY = SGP/SGP4

EPOCH          = 2025-12-02T21:13:11.872416
MEAN_MOTION    = 15.50647412
ECCENTRICITY   = .0001155
INCLINATION    = 43.0000
RA_OF_ASC_NODE = 42.3052
ARG_OF_PERICENTER = 300.2073
MEAN_ANOMALY   = 59.8672

EPHEMERIS_TYPE = 0
CLASSIFICATION_TYPE = U
NORAD_CAT_ID   = 66331
ELEMENT_SET_NO = 999
REV_AT_EPOCH   = 540
BSTAR          = .21787E-2
MEAN_MOTION_DOT = .129932E-2
MEAN_MOTION_DDOT = 0

CCSDS_OMM_VERS = 2.0
CREATION_DATE  = 
ORIGINATOR     = 

OBJECT_NAME    = STARLINK-35322
OBJECT_ID      = 2025-253P
CENTER_NAME    = EARTH
REF_FRAME      = TEME
TIME_SYSTEM    = UTC
MEAN_ELEMENT_THEORY = SGP/SGP4

EPOCH          = 2025-12-02T05:48:04.239936
MEAN_MOTION    = 15.50671276
ECCENTRICITY   = .0000986
INCLINATION    = 43.0002
RA_OF_ASC_NODE = 46.0856
ARG_OF_PERICENTER = 282.8379
MEAN_ANOMALY   = 77.2371

EPHEMERIS_TYPE = 0
CLASSIFICATION_TYPE = U
NORAD_CAT_ID   = 66332
ELEMENT_SET_NO = 999
REV_AT_EPOCH   = 530
BSTAR          = .1523E-2
MEAN_MOTION_DOT = .90339E-3
MEAN_MOTION_DDOT = 0

CCSDS_OMM_VERS = 2.0
CREATION_DATE  = 
ORIGINATOR     = 

OBJECT_NAME    = STARLINK-35400
OBJECT_ID      = 2025-253Q
CENTER_NAME    = EARTH
REF_FRAME      = TEME
TIME_SYSTEM    = UTC
MEAN_ELEMENT_THEORY = SGP/SGP4

EPOCH          = 2025-12-02T21:13:41.530080
MEAN_MOTION    = 15.50641369
ECCENTRICITY   = .0001052
INCLINATION    = 42.9984
RA_OF_ASC_NODE = 42.3069
ARG_OF_PERICENTER = 293.8960
MEAN_ANOMALY   = 66.1790

EPHEMERIS_TYPE = 0
CLASSIFICATION_TYPE = U
NORAD_CAT_ID   = 66333
ELEMENT_SET_NO = 999
REV_AT_EPOCH   = 540
BSTAR          = .19778E-2
MEAN_MOTION_DOT = .117708E-2
MEAN_MOTION_DDOT = 0

CCSDS_OMM_VERS = 2.0
CREATION_DATE  = 
ORIGINATOR     = 

OBJECT_NAME    = STARLINK-35407
OBJECT_ID      = 2025-253R
CENTER_NAME    = EARTH
REF_FRAME      = TEME
TIME_SYSTEM    = UTC
MEAN_ELEMENT_THEORY = SGP/SGP4

EPOCH          = 2025-12-02T05:47:54.704832
MEAN_MOTION    = 15.50606846
ECCENTRICITY   = .000182
INCLINATION    = 43.0002
RA_OF_ASC_NODE = 46.0853
ARG_OF_PERICENTER = 277.7851
MEAN_ANOMALY   = 82.2803

EPHEMERIS_TYPE = 0
CLASSIFICATION_TYPE = U
NORAD_CAT_ID   = 66334
ELEMENT_SET_NO = 999
REV_AT_EPOCH   = 530
BSTAR          = .26112E-2
MEAN_MOTION_DOT = .156096E-2
MEAN_MOTION_DDOT = 0

CCSDS_OMM_VERS = 2.0
CREATION_DATE  = 
ORIGINATOR     = 

OBJECT_NAME    = STARLINK-35417
OBJECT_ID      = 2025-253S
CENTER_NAME    = EARTH
REF_FRAME      = TEME
TIME_SYSTEM    = UTC
MEAN_ELEMENT_THEORY = SGP/SGP4

EPOCH          = 2025-12-03T04:00:01.998720
MEAN_MOTION    = 15.40623936
ECCENTRICITY   = .0001299
INCLINATION    = 43.0010
RA_OF_ASC_NODE = 40.9777
ARG_OF_PERICENTER = 274.6121
MEAN_ANOMALY   = 90.6627

EPHEMERIS_TYPE = 0
CLASSIFICATION_TYPE = U
NORAD_CAT_ID   = 66335
ELEMENT_SET_NO = 999
REV_AT_EPOCH   = 539
BSTAR          = .21477E-2
MEAN_MOTION_DOT = .90251E-3
MEAN_MOTION_DDOT = 0

CCSDS_OMM_VERS = 2.0
CREATION_DATE  = 
ORIGINATOR     = 

OBJECT_NAME    = STARLINK-35404
OBJECT_ID      = 2025-253T
CENTER_NAME    = EARTH
REF_FRAME      = TEME
TIME_SYSTEM    = UTC
MEAN_ELEMENT_THEORY = SGP/SGP4

EPOCH          = 2025-12-02T21:12:42.149088
MEAN_MOTION    = 15.50648575
ECCENTRICITY   = .0001458
INCLINATION    = 43.0002
RA_OF_ASC_NODE = 42.3018
ARG_OF_PERICENTER = 287.4567
MEAN_ANOMALY   = 72.6134

EPHEMERIS_TYPE = 0
CLASSIFICATION_TYPE = U
NORAD_CAT_ID   = 66336
ELEMENT_SET_NO = 999
REV_AT_EPOCH   = 540
BSTAR          = .22091E-2
MEAN_MOTION_DOT = .131785E-2
MEAN_MOTION_DDOT = 0

CCSDS_OMM_VERS = 2.0
CREATION_DATE  = 
ORIGINATOR     = 

OBJECT_NAME    = STARLINK-34783
OBJECT_ID      = 2025-253U
CENTER_NAME    = EARTH
REF_FRAME      = TEME
TIME_SYSTEM    = UTC
MEAN_ELEMENT_THEORY = SGP/SGP4

EPOCH          = 2025-12-03T04:00:01.998720
MEAN_MOTION    = 15.40640650
ECCENTRICITY   = .0001071
INCLINATION    = 43.0007
RA_OF_ASC_NODE = 40.9168
ARG_OF_PERICENTER = 254.4797
MEAN_ANOMALY   = 135.6527

EPHEMERIS_TYPE = 0
CLASSIFICATION_TYPE = U
NORAD_CAT_ID   = 66337
ELEMENT_SET_NO = 999
REV_AT_EPOCH   = 543
BSTAR          = .18617E-2
MEAN_MOTION_DOT = .78111E-3
MEAN_MOTION_DDOT = 0

CCSDS_OMM_VERS = 2.0
CREATION_DATE  = 
ORIGINATOR     = 

OBJECT_NAME    = STARLINK-35477
OBJECT_ID      = 2025-253V
CENTER_NAME    = EARTH
REF_FRAME      = TEME
TIME_SYSTEM    = UTC
MEAN_ELEMENT_THEORY = SGP/SGP4

EPOCH          = 2025-12-03T00:00:02.000160
MEAN_MOTION    = 15.40654364
ECCENTRICITY   = .0000999
INCLINATION    = 43.0008
RA_OF_ASC_NODE = 41.9681
ARG_OF_PERICENTER = 249.6086
MEAN_ANOMALY   = 257.6690

EPHEMERIS_TYPE = 0
CLASSIFICATION_TYPE = U
NORAD_CAT_ID   = 66338
ELEMENT_SET_NO = 999
REV_AT_EPOCH   = 546
BSTAR          = .12719E-2
MEAN_MOTION_DOT = .53116E-3
MEAN_MOTION_DDOT = 0

