STARLINK-35507          
1 66327U 25253J   25337.16668980 -.00085037  00000+0 -14577-2 0  9995
2 66327  43.0007  40.7115 0001526 264.9506 211.0836 15.50612124  5489
STARLINK-35460          
1 66328U 25253K   25335.59689311  .00099230  00000+0  16743-2 0  9997
2 66328  43.0003  49.8457 0001826 291.6400  68.4265 15.50606087  5209
STARLINK-35505          
1 66329U 25253L   25336.88864667  .00341195  00000+0  55423-2 0  9998
2 66329  42.9944  42.3497 0004007  64.2756 295.8518 15.50727196  5400
STARLINK-35512          
1 66330U 25253M   25337.16668980 -.00004106  00000+0 -91070-4 0  9992
2 66330  43.0008  40.8895 0001832 279.5569 122.9834 15.40699918  5394
STARLINK-35257          
1 66331U 25253N   25336.88416519  .00129932  00000+0  21787-2 0  9999
2 66331  43.0000  42.3052 0001155 300.2073  59.8672 15.50647412  5402
STARLINK-35322          
1 66332U 25253P   25336.24171574  .00090339  00000+0  15230-2 0  9993
2 66332  43.0002  46.0856 0000986 282.8379  77.2371 15.50671276  5307
STARLINK-35400          
1 66333U 25253Q   25336.88450845  .00117708  00000+0  19778-2 0  9996
2 66333  42.9984  42.3069 0001052 293.8960  66.1790 15.50641369  5406
STARLINK-35407          
1 66334U 25253R   25336.24160538  .00156096  00000+0  26112-2 0  9997
2 66334  43.0002  46.0853 0001820 277.7851  82.2803 15.50606846  5309
STARLINK-35417          
1 66335U 25253S   25337.16668980  .00090251  00000+0  21477-2 0  9993
2 66335  43.0010  40.9777 0001299 274.6121  90.6627 15.40623936  5397
STARLINK-35404          
1 66336U 25253T   25336.88382117  .00131785  00000+0  22091-2 0  9998
2 66336  43.0002  42.3018 0001458 287.4567  72.6134 15.50648575  5408
STARLINK-34783          
1 66337U 25253U   25337.16668980  .00078111  00000+0  18617-2 0  9998
2 66337  43.0007  40.9168 0001071 254.4797 135.6527 15.40640650  5438
STARLINK-35477          
1 66338U 25253V   25337.00002315  .00053116  00000+0  12719-2 0  9991
2 66338  43.0008  41.9681 0000999 249.6086 257.6690 15.40654364  5462
